ORBCOMM FM37            
1 33064U 08031E   25001.58589649  .00006789  00000+0  94523-3 0  9995
2 33064  48.4398  55.0382 0005908   8.5533 112.2484 14.78591352889386
ORBCOMM FM40            
1 33065U 08031F   25001.53915086  .00008471  00000+0  11200-2 0  9999
2 33065  48.4420  41.8981 0007191  21.1544 132.4414 14.80516202889459
VESSELSAT 1             
1 37840U 11058C   25001.45411199  .00000629  00000+0  19862-3 0  9994
2 37840  19.9635  22.7438 0013758 151.9095 208.2053 14.11287678682727
ORBCOMM FM109           
1 40086U 14040A   25001.58886227  .00004437  00000+0  10016-2 0  9998
2 40086  47.0031  82.8176 0002738 285.5826  74.4757 14.57570251556752
ORBCOMM FM107           
1 40087U 14040B   25001.62511458  .00002958  00000+0  67818-3 0  9994
2 40087  47.0047  83.6704 0002388 253.4887 106.5736 14.57699654556874
ORBCOMM FM106           
1 40088U 14040C   25001.47370806  .00005253  00000+0  92365-3 0  9994
2 40088  47.0600 279.6991 0017224  11.9955 348.1343 14.68623574558963
ORBCOMM FM111           
1 40089U 14040D   25001.42997323  .00008393  00000+0  99808-3 0  9996
2 40089  47.0008 152.0806 0030017 117.3760 243.0196 14.84610569565432
ORBCOMM FM104           
1 40090U 14040E   25001.57095217  .00003298  00000+0  77626-3 0  9998
2 40090  47.0041 115.5636 0016631 167.5424 192.5875 14.56150769556337
